H1 CPF  1  HTS 2017  4 11 12  6011 starlette        NONE
H2  7501001 1134     7646 2017 04 11  0  0  0 2017 04 16  0  0  0   180 1 1  0 0 0
H5  0.0750 
H9 
10 0 57858  20520.00000  0    3487341.998   -4013407.106   -5043136.992
10 0 57858  20700.00000  0    4019426.658   -2932305.465   -5417590.059
10 0 57858  20880.00000  0    4451858.912   -1769580.839   -5616657.412
10 0 57858  21060.00000  0    4773988.971    -560460.036   -5635873.228
10 0 57858  21240.00000  0    4977855.887     659450.461   -5476429.547
10 0 57858  21420.00000  0    5058260.194    1855127.910   -5144917.322
10 0 57858  21600.00000  0    5012794.613    2992993.299   -4652955.790
10 0 57858  21780.00000  0    4841845.959    4041672.512   -4016737.500
10 0 57858  21960.00000  0    4548574.490    4972666.851   -3256504.766
10 0 57858  22140.00000  0    4138873.315    5760939.969   -2395968.676
10 0 57858  22320.00000  0    3621307.157    6385428.504   -1461678.932
10 0 57858  22500.00000  0    3007026.968    6829483.030    -482347.224
10 0 57858  22680.00000  0    2309651.957    7081240.594     511876.059
10 0 57858  22860.00000  0    1545109.738    7133923.753    1490169.231
10 0 57858  23040.00000  0     731427.094    6986060.173    2421846.959
10 0 57858  23220.00000  0    -111539.125    6641614.666    3277204.215
10 0 57858  23400.00000  0    -962443.748    6110018.326    4028388.648
10 0 57858  23580.00000  0   -1798876.853    5406074.912    4650285.063
10 0 57858  23760.00000  0   -2597870.884    4549722.584    5121387.220
10 0 57858  23940.00000  0   -3336488.171    3565640.656    5424625.040
10 0 57858  24120.00000  0   -3992488.561    2482687.503    5548118.343
10 0 57858  24300.00000  0   -4545062.198    1333153.408    5485809.849
10 0 57858  24480.00000  0   -4975599.539     151831.343    5237926.489
10 0 57858  24660.00000  0   -5268462.194   -1025078.164    4811221.769
10 0 57858  24840.00000  0   -5411712.423   -2161195.878    4218958.067
10 0 57858  25020.00000  0   -5397751.552   -3221282.717    3480593.579
10 0 57858  25200.00000  0   -5223808.652   -4172579.624    2621158.247
10 0 57858  25380.00000  0   -4892233.721   -4986086.311    1670329.691
10 0 57858  25560.00000  0   -4410557.212   -5637691.225     661247.282
10 0 57858  25740.00000  0   -3791298.914   -6109070.296    -370863.253
10 0 57858  25920.00000  0   -3051536.743   -6388292.159   -1390164.449
10 0 57858  26100.00000  0   -2212267.138   -6470094.273   -2361680.617
10 0 57858  26280.00000  0   -1297608.580   -6355829.257   -3252672.206
10 0 57858  26460.00000  0    -333908.994   -6053110.469   -4033831.722
10 0 57858  26640.00000  0     651178.343   -5575210.940   -4680245.553
10 0 57858  26820.00000  0    1629596.196   -4940286.073   -5172097.148
10 0 57858  27000.00000  0    2573721.790   -4170491.317   -5495113.864
10 0 57858  27180.00000  0    3457120.036   -3291056.427   -5640778.753
10 0 57858  27360.00000  0    4255199.186   -2329365.643   -5606334.479
10 0 57858  27540.00000  0    4945766.818   -1314083.286   -5394619.277
10 0 57858  27720.00000  0    5509496.449    -274344.701   -5013772.753
10 0 57858  27900.00000  0    5930316.947     760980.091   -4476838.302
10 0 57858  28080.00000  0    6195732.599    1763947.382   -3801283.036
10 0 57858  28260.00000  0    6297083.969    2708128.023   -3008455.429
10 0 57858  28440.00000  0    6229757.298    3569133.062   -2122989.811
10 0 57858  28620.00000  0    5993340.945    4325083.927   -1172160.107
10 0 57858  28800.00000  0    5591725.084    4957029.885    -185187.475
10 0 57858  28980.00000  0    5033141.140    5449317.921     807495.359
10 0 57858  29160.00000  0    4330129.887    5789917.224    1775023.427
10 0 57858  29340.00000  0    3499425.032    5970695.115    2686919.437
10 0 57858  29520.00000  0    2561736.706    5987637.232    3513948.454
10 0 57858  29700.00000  0    1541420.316    5841001.805    4228993.270
10 0 57858  29880.00000  0     466016.748    5535397.456    4807935.084
10 0 57858  30060.00000  0    -634347.934    5079767.087    5230516.366
10 0 57858  30240.00000  0   -1727710.166    4487261.054    5481148.881
10 0 57858  30420.00000  0   -2781157.164    3774989.639    5549630.409
10 0 57858  30600.00000  0   -3761845.752    2963639.290    5431731.467
10 0 57858  30780.00000  0   -4638130.225    2076942.339    5129601.651
10 0 57858  30960.00000  0   -5380756.126    1140996.194    4651941.666
10 0 57858  31140.00000  0   -5964056.041     183445.629    4013898.144
10 0 57858  31320.00000  0   -6367075.016    -767443.251    3236657.791
10 0 57858  31500.00000  0   -6574551.804   -1683778.365    2346734.227
10 0 57858  31680.00000  0   -6577676.822   -2539053.734    1374963.499
10 0 57858  31860.00000  0   -6374557.771   -3309114.712     355254.294
10 0 57858  32040.00000  0   -5970346.940   -3973008.652    -676827.011
10 0 57858  32220.00000  0   -5377024.096   -4513664.524   -1685541.797
10 0 57858  32400.00000  0   -4612854.482   -4918360.308   -2636435.049
10 0 57858  32580.00000  0   -3701576.988   -5178960.145   -3497664.331
10 0 57858  32760.00000  0   -2671398.645   -5291929.196   -4241130.589
10 0 57858  32940.00000  0   -1553874.864   -5258153.194   -4843366.580
10 0 57858  33120.00000  0    -382751.045   -5082602.080   -5286164.399
10 0 57858  33300.00000  0     807170.167   -4773884.006   -5556949.543
10 0 57858  33480.00000  0    1981090.685   -4343734.509   -5648926.790
10 0 57858  33660.00000  0    3105181.387   -3806480.343   -5561032.845
10 0 57858  33840.00000  0    4147440.497   -3178505.998   -5297730.792
10 0 57858  34020.00000  0    5078441.863   -2477741.899   -4868678.023
10 0 57858  34200.00000  0    5871979.147   -1723188.233   -4288300.034
10 0 57858  34380.00000  0    6505620.562    -934477.369   -3575291.476
10 0 57858  34560.00000  0    6961182.001    -131471.191   -2752055.099
10 0 57858  34740.00000  0    7225123.533     666108.636   -1844089.129
10 0 57858  34920.00000  0    7288875.584    1439023.962    -879327.723
10 0 57858  35100.00000  0    7149092.672    2168844.567     112564.691
10 0 57858  35280.00000  0    6807828.211    2838259.827    1100943.814
10 0 57858  35460.00000  0    6272619.576    3431381.251    2054977.248
10 0 57858  35640.00000  0    5556473.293    3934037.806    2944474.463
10 0 57858  35820.00000  0    4677731.842    4334066.391    3740748.529
10 0 57858  36000.00000  0    3659802.551    4621594.063    4417495.206
10 0 57858  36180.00000  0    2530731.087    4789306.730    4951668.937
10 0 57858  36360.00000  0    1322603.680    4832692.729    5324331.830
10 0 57858  36540.00000  0      70768.853    4750248.372    5521438.275
10 0 57858  36720.00000  0   -1187122.784    4543633.435    5534517.627
10 0 57858  36900.00000  0   -2412253.121    4217756.188    5361208.557
10 0 57858  37080.00000  0   -3565918.566    3780768.468    5005597.372
10 0 57858  37260.00000  0   -4610920.917    3243955.514    4478316.442
10 0 57858  37440.00000  0   -5513009.723    2621500.857    3796358.138
10 0 57858  37620.00000  0   -6242287.115    1930116.995    2982576.587
10 0 57858  37800.00000  0   -6774479.803    1188552.374    2064882.973
10 0 57858  37980.00000  0   -7091991.006     416993.163    1075163.364
10 0 57858  38160.00000  0   -7184648.978    -363611.539      47972.614
10 0 57858  38340.00000  0   -7050089.175   -1132259.681    -980912.739
10 0 57858  38520.00000  0   -6693745.904   -1868592.582   -1975981.483
10 0 57858  38700.00000  0   -6128469.626   -2553533.688   -2903414.757
10 0 57858  38880.00000  0   -5373816.958   -3169832.409   -3732365.705
10 0 57858  39060.00000  0   -4455089.796   -3702488.643   -4436023.513
10 0 57858  39240.00000  0   -3402211.259   -4139051.996   -4992425.541
10 0 57858  39420.00000  0   -2248522.389   -4469800.874   -5385008.665
10 0 57858  39600.00000  0   -1029573.002   -4687817.713   -5602912.930
10 0 57858  39780.00000  0     218039.493   -4788981.942   -5641066.191
10 0 57858  39960.00000  0    1457747.025   -4771901.731   -5500084.389
10 0 57858  40140.00000  0    2653983.777   -4637806.694   -5186024.793
10 0 57858  40320.00000  0    3773052.668   -4390418.023   -4710025.071
10 0 57858  40500.00000  0    4783887.977   -4035804.386   -4087851.586
10 0 57858  40680.00000  0    5658718.561   -3582232.188   -3339377.476
10 0 57858  40860.00000  0    6373643.002   -3040014.388   -2488004.548
10 0 57858  41040.00000  0    6909126.413   -2421353.794   -1560035.459
10 0 57858  41220.00000  0    7250421.562   -1740175.335    -583999.493
10 0 57858  41400.00000  0    7387916.361   -1011942.311     410065.701
10 0 57858  41580.00000  0    7317404.686    -253446.930    1391376.784
10 0 57858  41760.00000  0    7040270.772     517433.541    2329209.139
10 0 57858  41940.00000  0    6563574.580    1282022.707    3193737.811
10 0 57858  42120.00000  0    5900023.272    2021179.596    3956904.196
10 0 57858  42300.00000  0    5067811.834    2715687.519    4593295.017
10 0 57858  42480.00000  0    4090313.105    3346698.899    5081011.223
10 0 57858  42660.00000  0    2995602.083    3896233.614    5402500.975
10 0 57858  42840.00000  0    1815794.821    4347722.239    5545320.498
10 0 57858  43020.00000  0     586200.506    4686577.659    5502775.052
10 0 57858  43200.00000  0    -655709.195    4900773.959    5274400.290
10 0 57858  43380.00000  0   -1871498.752    4981401.348    4866233.009
10 0 57858  43560.00000  0   -3023097.504    4923159.905    4290825.078
10 0 57858  43740.00000  0   -4074204.011    4724753.425    3566968.481
10 0 57858  43920.00000  0   -4991698.289    4389141.973    2719111.043
10 0 57858  44100.00000  0   -5746970.344    3923612.404    1776466.381
10 0 57858  44280.00000  0   -6317068.712    3339648.648     771857.415
10 0 57858  44460.00000  0   -6685584.360    2652598.821    -259641.267
10 0 57858  44640.00000  0   -6843206.814    1881158.148   -1282172.068
10 0 57858  44820.00000  0   -6787919.838    1046701.864   -2260574.996
99
